ONEWEB-0128             
1 47274U 20100S   24213.81129874 -.00000250  00000+0 -73019-3 0  9990
2 47274  87.8958 127.1752 0001764  69.7381 290.3937 13.12443547174849
ONEWEB-0129             
1 47275U 20100T   24213.79021450 -.00000712  00000+0 -20136-2 0  9993
2 47275  87.8952 127.1433 0001812 129.7225 230.4063 13.12442947174778
ONEWEB-0130             
1 47276U 20100U   24214.19898699  .00000265  00000+0  70018-3 0  9992
2 47276  87.8951 127.0693 0001810  77.7194 282.4137 13.12442980174798
ONEWEB-0131             
1 47277U 20100V   24213.81454365 -.00000182  00000+0 -54197-3 0  9999
2 47277  87.8953 127.1617 0001892  73.4515 286.6821 13.12443195174782
ONEWEB-0132             
1 47278U 20100W   24213.84375055  .00000168  00000+0  43296-3 0  9991
2 47278  87.8953 127.1580 0002096  70.8349 289.3006 13.12443750174686
ONEWEB-0133             
1 47279U 20100X   24213.78372720 -.00000370  00000+0 -10636-2 0  9999
2 47279  87.8947 127.1658 0001882  72.4305 287.7029 13.12443841174833
ONEWEB-0134             
1 47280U 20100Y   24213.82915847  .00000460  00000+0  12437-2 0  9998
2 47280  87.8945 127.1443 0001698  74.6712 285.4604 13.12442389174814
ONEWEB-0135             
1 47281U 20100Z   24214.25737481 -.00000285  00000+0 -82643-3 0  9997
2 47281  87.8951 127.0781 0001509  66.2965 293.8322 13.12443905174897
